QIANFAN-41              
1 62242U 24232F   25259.21776531  .00000091  00000+0  12284-3 0  9993
2 62242  88.9970  50.0199 0015850  85.7957 274.5006 13.50969948 87433
QIANFAN-42              
1 62243U 24232G   25259.17232968  .00000308  00000+0  12701-3 0  9995
2 62243  88.9970  47.3478 0015428  19.4339 340.7438 14.24349544 88906
QIANFAN-43              
1 62244U 24232H   25259.21368066  .00000089  00000+0  11954-3 0  9995
2 62244  88.9974  50.0817 0017395  90.3769 269.9376 13.50967272 56044
QIANFAN-44              
1 62245U 24232J   25259.20132586  .00000110  00000+0  15093-3 0  9994
2 62245  88.9973  49.8950 0015595  87.8577 272.4360 13.50972732 87511
QIANFAN-45              
1 62246U 24232K   25259.24246680  .00000079  00000+0  10290-3 0  9998
2 62246  88.9976  50.0344 0016239  87.4138 272.8871 13.50969376 87444
QIANFAN-46              
1 62247U 24232L   25259.26713880  .00000093  00000+0  12588-3 0  9990
2 62247  88.9972  50.1045 0016338  92.2225 268.0797 13.50970074 87408
QIANFAN-47              
1 62248U 24232M   25259.19721003  .00000098  00000+0  13366-3 0  9999
2 62248  88.9968  50.0480 0016758  91.6154 268.6917 13.50963598 87421
QIANFAN-48              
1 62249U 24232N   25259.23424964  .00000102  00000+0  13827-3 0  9999
2 62249  88.9972  50.0427 0019019  93.8267 266.5059 13.50967217 87437
